STARLINK-1350
1 45535U 20025E   26090.58252144  .00013917  00000+0  39286-3 0  9990
2 45535  53.0717 290.2831 0001995 111.1288 248.9928 15.36673317329523
